<?xml version="1.0" encoding="UTF-8"?>
<ndm xmlns:xsi="http://www.w3.org/2001/XMLSchema-instance" xsi:noNamespaceSchemaLocation="https://sanaregistry.org/r/ndmxml_unqualified/ndmxml-2.0.0-master-2.0.xsd">
<omm id="CCSDS_OMM_VERS" version="2.0">
<header><CREATION_DATE/><ORIGINATOR/></header><body><segment><metadata><OBJECT_NAME>KUIPER-00136</OBJECT_NAME><OBJECT_ID>2025-228R</OBJECT_ID><CENTER_NAME>EARTH</CENTER_NAME><REF_FRAME>TEME</REF_FRAME><TIME_SYSTEM>UTC</TIME_SYSTEM><MEAN_ELEMENT_THEORY>SGP4</MEAN_ELEMENT_THEORY></metadata><data><meanElements><EPOCH>2026-01-12T00:00:02.999808</EPOCH><MEAN_MOTION>14.90594387</MEAN_MOTION><ECCENTRICITY>.00044149</ECCENTRICITY><INCLINATION>51.8973</INCLINATION><RA_OF_ASC_NODE>239.3079</RA_OF_ASC_NODE><ARG_OF_PERICENTER>178.5273</ARG_OF_PERICENTER><MEAN_ANOMALY>37.3527</MEAN_ANOMALY></meanElements><tleParameters><EPHEMERIS_TYPE>0</EPHEMERIS_TYPE><CLASSIFICATION_TYPE>U</CLASSIFICATION_TYPE><NORAD_CAT_ID>65962</NORAD_CAT_ID><ELEMENT_SET_NO>999</ELEMENT_SET_NO><REV_AT_EPOCH>467</REV_AT_EPOCH><BSTAR>.12800923E-2</BSTAR><MEAN_MOTION_DOT>.12436E-3</MEAN_MOTION_DOT><MEAN_MOTION_DDOT>0</MEAN_MOTION_DDOT></tleParameters></data></segment></body></omm>
<omm id="CCSDS_OMM_VERS" version="2.0">
<header><CREATION_DATE/><ORIGINATOR/></header><body><segment><metadata><OBJECT_NAME>KUIPER-00137</OBJECT_NAME><OBJECT_ID>2025-228S</OBJECT_ID><CENTER_NAME>EARTH</CENTER_NAME><REF_FRAME>TEME</REF_FRAME><TIME_SYSTEM>UTC</TIME_SYSTEM><MEAN_ELEMENT_THEORY>SGP4</MEAN_ELEMENT_THEORY></metadata><data><meanElements><EPOCH>2026-01-12T00:00:02.999808</EPOCH><MEAN_MOTION>15.03111288</MEAN_MOTION><ECCENTRICITY>.00045628</ECCENTRICITY><INCLINATION>51.9159</INCLINATION><RA_OF_ASC_NODE>237.4926</RA_OF_ASC_NODE><ARG_OF_PERICENTER>145.5826</ARG_OF_PERICENTER><MEAN_ANOMALY>18.1081</MEAN_ANOMALY></meanElements><tleParameters><EPHEMERIS_TYPE>0</EPHEMERIS_TYPE><CLASSIFICATION_TYPE>U</CLASSIFICATION_TYPE><NORAD_CAT_ID>65963</NORAD_CAT_ID><ELEMENT_SET_NO>999</ELEMENT_SET_NO><REV_AT_EPOCH>521</REV_AT_EPOCH><BSTAR>-.59829666E-1</BSTAR><MEAN_MOTION_DOT>-.765091E-2</MEAN_MOTION_DOT><MEAN_MOTION_DDOT>0</MEAN_MOTION_DDOT></tleParameters></data></segment></body></omm>
<omm id="CCSDS_OMM_VERS" version="2.0">
<header><CREATION_DATE/><ORIGINATOR/></header><body><segment><metadata><OBJECT_NAME>KUIPER-00138</OBJECT_NAME><OBJECT_ID>2025-228T</OBJECT_ID><CENTER_NAME>EARTH</CENTER_NAME><REF_FRAME>TEME</REF_FRAME><TIME_SYSTEM>UTC</TIME_SYSTEM><MEAN_ELEMENT_THEORY>SGP4</MEAN_ELEMENT_THEORY></metadata><data><meanElements><EPOCH>2026-01-12T00:00:02.999808</EPOCH><MEAN_MOTION>15.10988685</MEAN_MOTION><ECCENTRICITY>.000844</ECCENTRICITY><INCLINATION>51.8982</INCLINATION><RA_OF_ASC_NODE>236.1787</RA_OF_ASC_NODE><ARG_OF_PERICENTER>144.5064</ARG_OF_PERICENTER><MEAN_ANOMALY>300.0607</MEAN_ANOMALY></meanElements><tleParameters><EPHEMERIS_TYPE>0</EPHEMERIS_TYPE><CLASSIFICATION_TYPE>U</CLASSIFICATION_TYPE><NORAD_CAT_ID>65964</NORAD_CAT_ID><ELEMENT_SET_NO>999</ELEMENT_SET_NO><REV_AT_EPOCH>500</REV_AT_EPOCH><BSTAR>-.61342101E-1</BSTAR><MEAN_MOTION_DOT>-.957579E-2</MEAN_MOTION_DOT><MEAN_MOTION_DDOT>0</MEAN_MOTION_DDOT></tleParameters></data></segment></body></omm>
<omm id="CCSDS_OMM_VERS" version="2.0">
<header><CREATION_DATE/><ORIGINATOR/></header><body><segment><metadata><OBJECT_NAME>KUIPER-00140</OBJECT_NAME><OBJECT_ID>2025-228U</OBJECT_ID><CENTER_NAME>EARTH</CENTER_NAME><REF_FRAME>TEME</REF_FRAME><TIME_SYSTEM>UTC</TIME_SYSTEM><MEAN_ELEMENT_THEORY>SGP4</MEAN_ELEMENT_THEORY></metadata><data><meanElements><EPOCH>2026-01-12T00:00:02.999808</EPOCH><MEAN_MOTION>15.02371895</MEAN_MOTION><ECCENTRICITY>.00058668</ECCENTRICITY><INCLINATION>51.8902</INCLINATION><RA_OF_ASC_NODE>237.7234</RA_OF_ASC_NODE><ARG_OF_PERICENTER>140.1118</ARG_OF_PERICENTER><MEAN_ANOMALY>177.9020</MEAN_ANOMALY></meanElements><tleParameters><EPHEMERIS_TYPE>0</EPHEMERIS_TYPE><CLASSIFICATION_TYPE>U</CLASSIFICATION_TYPE><NORAD_CAT_ID>65965</NORAD_CAT_ID><ELEMENT_SET_NO>999</ELEMENT_SET_NO><REV_AT_EPOCH>563</REV_AT_EPOCH><BSTAR>-.84736701E-1</BSTAR><MEAN_MOTION_DOT>-.105098E-1</MEAN_MOTION_DOT><MEAN_MOTION_DDOT>0</MEAN_MOTION_DDOT></tleParameters></data></segment></body></omm>
<omm id="CCSDS_OMM_VERS" version="2.0">
<header><CREATION_DATE/><ORIGINATOR/></header><body><segment><metadata><OBJECT_NAME>KUIPER-00141</OBJECT_NAME><OBJECT_ID>2025-228V</OBJECT_ID><CENTER_NAME>EARTH</CENTER_NAME><REF_FRAME>TEME</REF_FRAME><TIME_SYSTEM>UTC</TIME_SYSTEM><MEAN_ELEMENT_THEORY>SGP4</MEAN_ELEMENT_THEORY></metadata><data><meanElements><EPOCH>2026-01-12T00:00:02.999808</EPOCH><MEAN_MOTION>15.18457037</MEAN_MOTION><ECCENTRICITY>.00026499</ECCENTRICITY><INCLINATION>51.8861</INCLINATION><RA_OF_ASC_NODE>235.1558</RA_OF_ASC_NODE><ARG_OF_PERICENTER>157.9881</ARG_OF_PERICENTER><MEAN_ANOMALY>13.5866</MEAN_ANOMALY></meanElements><tleParameters><EPHEMERIS_TYPE>0</EPHEMERIS_TYPE><CLASSIFICATION_TYPE>U</CLASSIFICATION_TYPE><NORAD_CAT_ID>65966</NORAD_CAT_ID><ELEMENT_SET_NO>999</ELEMENT_SET_NO><REV_AT_EPOCH>418</REV_AT_EPOCH><BSTAR>-.10600438E+0</BSTAR><MEAN_MOTION_DOT>-.1996885E-1</MEAN_MOTION_DOT><MEAN_MOTION_DDOT>0</MEAN_MOTION_DDOT></tleParameters></data></segment></body></omm>
<omm id="CCSDS_OMM_VERS" version="2.0">
<header><CREATION_DATE/><ORIGINATOR/></header><body><segment><metadata><OBJECT_NAME>KUIPER-00146</OBJECT_NAME><OBJECT_ID>2025-228W</OBJECT_ID><CENTER_NAME>EARTH</CENTER_NAME><REF_FRAME>TEME</REF_FRAME><TIME_SYSTEM>UTC</TIME_SYSTEM><MEAN_ELEMENT_THEORY>SGP4</MEAN_ELEMENT_THEORY></metadata><data><meanElements><EPOCH>2026-01-12T00:00:02.999808</EPOCH><MEAN_MOTION>15.08389014</MEAN_MOTION><ECCENTRICITY>.00038084</ECCENTRICITY><INCLINATION>51.8972</INCLINATION><RA_OF_ASC_NODE>236.1877</RA_OF_ASC_NODE><ARG_OF_PERICENTER>157.2695</ARG_OF_PERICENTER><MEAN_ANOMALY>211.4935</MEAN_ANOMALY></meanElements><tleParameters><EPHEMERIS_TYPE>0</EPHEMERIS_TYPE><CLASSIFICATION_TYPE>U</CLASSIFICATION_TYPE><NORAD_CAT_ID>65967</NORAD_CAT_ID><ELEMENT_SET_NO>999</ELEMENT_SET_NO><REV_AT_EPOCH>589</REV_AT_EPOCH><BSTAR>-.35779114E-1</BSTAR><MEAN_MOTION_DOT>-.529239E-2</MEAN_MOTION_DOT><MEAN_MOTION_DDOT>0</MEAN_MOTION_DDOT></tleParameters></data></segment></body></omm>
<omm id="CCSDS_OMM_VERS" version="2.0">
<header><CREATION_DATE/><ORIGINATOR/></header><body><segment><metadata><OBJECT_NAME>KUIPER-00149</OBJECT_NAME><OBJECT_ID>2025-228X</OBJECT_ID><CENTER_NAME>EARTH</CENTER_NAME><REF_FRAME>TEME</REF_FRAME><TIME_SYSTEM>UTC</TIME_SYSTEM><MEAN_ELEMENT_THEORY>SGP4</MEAN_ELEMENT_THEORY></metadata><data><meanElements><EPOCH>2026-01-12T00:00:02.999808</EPOCH><MEAN_MOTION>15.29538746</MEAN_MOTION><ECCENTRICITY>.00048216</ECCENTRICITY><INCLINATION>51.8798</INCLINATION><RA_OF_ASC_NODE>234.4952</RA_OF_ASC_NODE><ARG_OF_PERICENTER>134.1427</ARG_OF_PERICENTER><MEAN_ANOMALY>50.2784</MEAN_ANOMALY></meanElements><tleParameters><EPHEMERIS_TYPE>0</EPHEMERIS_TYPE><CLASSIFICATION_TYPE>U</CLASSIFICATION_TYPE><NORAD_CAT_ID>65968</NORAD_CAT_ID><ELEMENT_SET_NO>999</ELEMENT_SET_NO><REV_AT_EPOCH>488</REV_AT_EPOCH><BSTAR>-.34913251E-1</BSTAR><MEAN_MOTION_DOT>-.940371E-2</MEAN_MOTION_DOT><MEAN_MOTION_DDOT>0</MEAN_MOTION_DDOT></tleParameters></data></segment></body></omm>
<omm id="CCSDS_OMM_VERS" version="2.0">
<header><CREATION_DATE/><ORIGINATOR/></header><body><segment><metadata><OBJECT_NAME>KUIPER-00154</OBJECT_NAME><OBJECT_ID>2025-228Y</OBJECT_ID><CENTER_NAME>EARTH</CENTER_NAME><REF_FRAME>TEME</REF_FRAME><TIME_SYSTEM>UTC</TIME_SYSTEM><MEAN_ELEMENT_THEORY>SGP4</MEAN_ELEMENT_THEORY></metadata><data><meanElements><EPOCH>2026-01-11T19:50:51.032256</EPOCH><MEAN_MOTION>15.35630184</MEAN_MOTION><ECCENTRICITY>.00054391</ECCENTRICITY><INCLINATION>51.8781</INCLINATION><RA_OF_ASC_NODE>235.2138</RA_OF_ASC_NODE><ARG_OF_PERICENTER>109.4924</ARG_OF_PERICENTER><MEAN_ANOMALY>250.6650</MEAN_ANOMALY></meanElements><tleParameters><EPHEMERIS_TYPE>0</EPHEMERIS_TYPE><CLASSIFICATION_TYPE>U</CLASSIFICATION_TYPE><NORAD_CAT_ID>65969</NORAD_CAT_ID><ELEMENT_SET_NO>999</ELEMENT_SET_NO><REV_AT_EPOCH>1504</REV_AT_EPOCH><BSTAR>.14933182E-2</BSTAR><MEAN_MOTION_DOT>.52527E-3</MEAN_MOTION_DOT><MEAN_MOTION_DDOT>0</MEAN_MOTION_DDOT></tleParameters></data></segment></body></omm>

</ndm>
