KUIPER-00136            
1 65962U 25228R   26012.00003472  .00012436  00000+0  12801-2 0  9993
2 65962  51.8973 239.3079 0004414 178.5273  37.3527 14.90594387  4676
KUIPER-00137            
1 65963U 25228S   26012.00003472 -.00765091  00000+0 -59830-1 0  9990
2 65963  51.9159 237.4926 0004562 145.5826  18.1081 15.03111288  5219
KUIPER-00138            
1 65964U 25228T   26012.00003472 -.00957579  00000+0 -61342-1 0  9996
2 65964  51.8982 236.1787 0008440 144.5064 300.0607 15.10988685  5001
KUIPER-00140            
1 65965U 25228U   26012.00003472 -.01050980  00000+0 -84737-1 0  9991
2 65965  51.8902 237.7234 0005866 140.1118 177.9020 15.02371895  5638
KUIPER-00141            
1 65966U 25228V   26012.00003472 -.01996885  00000+0 -10600+0 0  9991
2 65966  51.8861 235.1558 0002649 157.9881  13.5866 15.18457037  4185
KUIPER-00146            
1 65967U 25228W   26012.00003472 -.00529239  00000+0 -35779-1 0  9992
2 65967  51.8972 236.1877 0003808 157.2695 211.4935 15.08389014  5891
KUIPER-00149            
1 65968U 25228X   26012.00003472 -.00940371  00000+0 -34913-1 0  9996
2 65968  51.8798 234.4952 0004821 134.1427  50.2784 15.29538746  4886
KUIPER-00154            
1 65969U 25228Y   26011.82697954  .00052527  00000+0  14933-2 0  9996
2 65969  51.8781 235.2138 0005439 109.4924 250.6650 15.35630184 15041
